[{"OBJECT_NAME":"YAOGAN-32 B","OBJECT_ID":"2018-077B","EPOCH":"2026-03-09T23:02:46.062240","MEAN_MOTION":14.63035466,"ECCENTRICITY":0.00062215,"INCLINATION":98.1598,"RA_OF_ASC_NODE":98.6057,"ARG_OF_PERICENTER":158.2393,"MEAN_ANOMALY":201.9074,"EPHEMERIS_TYPE":0,"CLASSIFICATION_TYPE":"U","NORAD_CAT_ID":43643,"ELEMENT_SET_NO":999,"REV_AT_EPOCH":39532,"BSTAR":0.00019194055,"MEAN_MOTION_DOT":9.37e-6,"MEAN_MOTION_DDOT":0},{"OBJECT_NAME":"CZ-4B R\/B","OBJECT_ID":"2007-042B","EPOCH":"2026-03-09T19:45:42.428736","MEAN_MOTION":14.52374929,"ECCENTRICITY":0.00558784,"INCLINATION":98.202,"RA_OF_ASC_NODE":15.5384,"ARG_OF_PERICENTER":68.5858,"MEAN_ANOMALY":345.5003,"EPHEMERIS_TYPE":0,"CLASSIFICATION_TYPE":"U","NORAD_CAT_ID":32063,"ELEMENT_SET_NO":999,"REV_AT_EPOCH":97761,"BSTAR":0.00014332905,"MEAN_MOTION_DOT":5.5e-6,"MEAN_MOTION_DDOT":0}]
